[{"OBJECT_NAME":"STARLINK-37248","OBJECT_ID":"2026-068V","EPOCH":"2026-04-24T16:15:21.632544","MEAN_MOTION":15.80957779,"ECCENTRICITY":9.301e-5,"INCLINATION":53.1563,"RA_OF_ASC_NODE":278.6902,"ARG_OF_PERICENTER":58.0104,"MEAN_ANOMALY":302.1009,"EPHEMERIS_TYPE":0,"CLASSIFICATION_TYPE":"U","NORAD_CAT_ID":68527,"ELEMENT_SET_NO":999,"REV_AT_EPOCH":394,"BSTAR":0.0011865241,"MEAN_MOTION_DOT":0.00241079,"MEAN_MOTION_DDOT":0},{"OBJECT_NAME":"STARLINK-37241","OBJECT_ID":"2026-068W","EPOCH":"2026-04-25T08:00:01.999008","MEAN_MOTION":15.80875049,"ECCENTRICITY":9.37e-5,"INCLINATION":53.1564,"RA_OF_ASC_NODE":275.3843,"ARG_OF_PERICENTER":97.342,"MEAN_ANOMALY":47.001,"EPHEMERIS_TYPE":0,"CLASSIFICATION_TYPE":"U","NORAD_CAT_ID":68528,"ELEMENT_SET_NO":999,"REV_AT_EPOCH":531,"BSTAR":-0.00010082,"MEAN_MOTION_DOT":-0.00020552,"MEAN_MOTION_DDOT":0},{"OBJECT_NAME":"STARLINK-37244","OBJECT_ID":"2026-068X","EPOCH":"2026-04-25T20:00:01.000224","MEAN_MOTION":15.72064868,"ECCENTRICITY":0.0001114,"INCLINATION":53.1591,"RA_OF_ASC_NODE":272.9394,"ARG_OF_PERICENTER":40.9888,"MEAN_ANOMALY":40.8981,"EPHEMERIS_TYPE":0,"CLASSIFICATION_TYPE":"U","NORAD_CAT_ID":68529,"ELEMENT_SET_NO":999,"REV_AT_EPOCH":539,"BSTAR":-0.021486,"MEAN_MOTION_DOT":-0.02513164,"MEAN_MOTION_DDOT":0},{"OBJECT_NAME":"STARLINK-36285","OBJECT_ID":"2026-068Y","EPOCH":"2026-04-23T17:26:35.047392","MEAN_MOTION":15.80981032,"ECCENTRICITY":8.21e-5,"INCLINATION":53.1575,"RA_OF_ASC_NODE":283.4276,"ARG_OF_PERICENTER":61.6882,"MEAN_ANOMALY":298.4224,"EPHEMERIS_TYPE":0,"CLASSIFICATION_TYPE":"U","NORAD_CAT_ID":68530,"ELEMENT_SET_NO":999,"REV_AT_EPOCH":379,"BSTAR":0.0011807423,"MEAN_MOTION_DOT":0.00240132,"MEAN_MOTION_DDOT":0},{"OBJECT_NAME":"STARLINK-36294","OBJECT_ID":"2026-068Z","EPOCH":"2026-04-24T11:37:55.950240","MEAN_MOTION":15.80966669,"ECCENTRICITY":9.004e-5,"INCLINATION":53.1562,"RA_OF_ASC_NODE":279.6197,"ARG_OF_PERICENTER":83.5948,"MEAN_ANOMALY":276.5178,"EPHEMERIS_TYPE":0,"CLASSIFICATION_TYPE":"U","NORAD_CAT_ID":68531,"ELEMENT_SET_NO":999,"REV_AT_EPOCH":391,"BSTAR":0.0013532891,"MEAN_MOTION_DOT":0.00276313,"MEAN_MOTION_DDOT":0},{"OBJECT_NAME":"STARLINK-36249","OBJECT_ID":"2026-068AA","EPOCH":"2026-04-25T20:00:01.000224","MEAN_MOTION":15.72097184,"ECCENTRICITY":0.0001173,"INCLINATION":53.159,"RA_OF_ASC_NODE":272.8939,"ARG_OF_PERICENTER":47.4763,"MEAN_ANOMALY":56.2409,"EPHEMERIS_TYPE":0,"CLASSIFICATION_TYPE":"U","NORAD_CAT_ID":68532,"ELEMENT_SET_NO":999,"REV_AT_EPOCH":534,"BSTAR":-0.021738,"MEAN_MOTION_DOT":-0.02541939,"MEAN_MOTION_DDOT":0},{"OBJECT_NAME":"STARLINK-36252","OBJECT_ID":"2026-068AB","EPOCH":"2026-04-23T17:24:24.984288","MEAN_MOTION":15.80995437,"ECCENTRICITY":5.787e-5,"INCLINATION":53.1576,"RA_OF_ASC_NODE":283.4169,"ARG_OF_PERICENTER":58.1084,"MEAN_ANOMALY":301.9995,"EPHEMERIS_TYPE":0,"CLASSIFICATION_TYPE":"U","NORAD_CAT_ID":68533,"ELEMENT_SET_NO":999,"REV_AT_EPOCH":379,"BSTAR":0.0015334829,"MEAN_MOTION_DOT":0.00315051,"MEAN_MOTION_DDOT":0},{"OBJECT_NAME":"STARLINK-36299","OBJECT_ID":"2026-068AC","EPOCH":"2026-04-24T16:07:47.570304","MEAN_MOTION":15.80974674,"ECCENTRICITY":0.00014144,"INCLINATION":53.1572,"RA_OF_ASC_NODE":278.6533,"ARG_OF_PERICENTER":146.9952,"MEAN_ANOMALY":213.1159,"EPHEMERIS_TYPE":0,"CLASSIFICATION_TYPE":"U","NORAD_CAT_ID":68534,"ELEMENT_SET_NO":999,"REV_AT_EPOCH":394,"BSTAR":0.0010277525,"MEAN_MOTION_DOT":0.00208082,"MEAN_MOTION_DDOT":0},{"OBJECT_NAME":"STARLINK-37234","OBJECT_ID":"2026-068AD","EPOCH":"2026-04-23T23:24:14.092704","MEAN_MOTION":15.80977096,"ECCENTRICITY":8.518e-5,"INCLINATION":53.1568,"RA_OF_ASC_NODE":282.1289,"ARG_OF_PERICENTER":67.4663,"MEAN_ANOMALY":292.6449,"EPHEMERIS_TYPE":0,"CLASSIFICATION_TYPE":"U","NORAD_CAT_ID":68535,"ELEMENT_SET_NO":999,"REV_AT_EPOCH":383,"BSTAR":0.0012810898,"MEAN_MOTION_DOT":0.00261197,"MEAN_MOTION_DDOT":0},{"OBJECT_NAME":"STARLINK-37173","OBJECT_ID":"2026-068AE","EPOCH":"2026-04-24T17:36:45.669024","MEAN_MOTION":15.80254152,"ECCENTRICITY":0.00017728,"INCLINATION":53.157,"RA_OF_ASC_NODE":278.3275,"ARG_OF_PERICENTER":148.73,"MEAN_ANOMALY":211.3828,"EPHEMERIS_TYPE":0,"CLASSIFICATION_TYPE":"U","NORAD_CAT_ID":68536,"ELEMENT_SET_NO":999,"REV_AT_EPOCH":395,"BSTAR":-0.0038268196,"MEAN_MOTION_DOT":-0.00679807,"MEAN_MOTION_DDOT":0},{"OBJECT_NAME":"SWC-1","OBJECT_ID":"2026-069C","EPOCH":"2026-04-17T12:14:33.921312","MEAN_MOTION":1.01840683,"ECCENTRICITY":0.8357664,"INCLINATION":28.3533,"RA_OF_ASC_NODE":357.7706,"ARG_OF_PERICENTER":80.9928,"MEAN_ANOMALY":279.0715,"EPHEMERIS_TYPE":0,"CLASSIFICATION_TYPE":"U","NORAD_CAT_ID":68540,"ELEMENT_SET_NO":999,"REV_AT_EPOCH":16,"BSTAR":0,"MEAN_MOTION_DOT":-3.51e-6,"MEAN_MOTION_DDOT":0},{"OBJECT_NAME":"STARLINK-37326","OBJECT_ID":"2026-070A","EPOCH":"2026-04-24T12:42:29.303712","MEAN_MOTION":15.80950576,"ECCENTRICITY":0.00014857,"INCLINATION":53.1575,"RA_OF_ASC_NODE":154.6561,"ARG_OF_PERICENTER":51.3783,"MEAN_ANOMALY":308.7372,"EPHEMERIS_TYPE":0,"CLASSIFICATION_TYPE":"U","NORAD_CAT_ID":68542,"ELEMENT_SET_NO":999,"REV_AT_EPOCH":350,"BSTAR":0.0011286934,"MEAN_MOTION_DOT":0.0022889,"MEAN_MOTION_DDOT":0},{"OBJECT_NAME":"STARLINK-36308","OBJECT_ID":"2026-070B","EPOCH":"2026-04-24T12:41:24.121824","MEAN_MOTION":15.80964357,"ECCENTRICITY":0.00013819,"INCLINATION":53.1579,"RA_OF_ASC_NODE":154.6511,"ARG_OF_PERICENTER":62.6095,"MEAN_ANOMALY":297.5068,"EPHEMERIS_TYPE":0,"CLASSIFICATION_TYPE":"U","NORAD_CAT_ID":68543,"ELEMENT_SET_NO":999,"REV_AT_EPOCH":350,"BSTAR":0.0010331745,"MEAN_MOTION_DOT":0.00209109,"MEAN_MOTION_DDOT":0},{"OBJECT_NAME":"STARLINK-37263","OBJECT_ID":"2026-070C","EPOCH":"2026-04-25T08:21:38.902752","MEAN_MOTION":15.80913395,"ECCENTRICITY":0.0001482,"INCLINATION":53.1577,"RA_OF_ASC_NODE":150.5164,"ARG_OF_PERICENTER":39.255,"MEAN_ANOMALY":320.858,"EPHEMERIS_TYPE":0,"CLASSIFICATION_TYPE":"U","NORAD_CAT_ID":68544,"ELEMENT_SET_NO":999,"REV_AT_EPOCH":363,"BSTAR":0.0015427,"MEAN_MOTION_DOT":0.0031577,"MEAN_MOTION_DDOT":0},{"OBJECT_NAME":"STARLINK-37289","OBJECT_ID":"2026-070D","EPOCH":"2026-04-24T14:11:22.068096","MEAN_MOTION":15.80931988,"ECCENTRICITY":9.592e-5,"INCLINATION":53.1575,"RA_OF_ASC_NODE":154.3285,"ARG_OF_PERICENTER":87.002,"MEAN_ANOMALY":273.1113,"EPHEMERIS_TYPE":0,"CLASSIFICATION_TYPE":"U","NORAD_CAT_ID":68545,"ELEMENT_SET_NO":999,"REV_AT_EPOCH":351,"BSTAR":0.001172022,"MEAN_MOTION_DOT":0.00237747,"MEAN_MOTION_DDOT":0},{"OBJECT_NAME":"STARLINK-37290","OBJECT_ID":"2026-070E","EPOCH":"2026-04-25T09:51:33.208992","MEAN_MOTION":15.80869232,"ECCENTRICITY":0.0002333,"INCLINATION":53.1583,"RA_OF_ASC_NODE":150.1938,"ARG_OF_PERICENTER":128.6513,"MEAN_ANOMALY":231.4719,"EPHEMERIS_TYPE":0,"CLASSIFICATION_TYPE":"U","NORAD_CAT_ID":68546,"ELEMENT_SET_NO":999,"REV_AT_EPOCH":364,"BSTAR":8.4648e-5,"MEAN_MOTION_DOT":0.00016036,"MEAN_MOTION_DDOT":0},{"OBJECT_NAME":"STARLINK-37245","OBJECT_ID":"2026-070F","EPOCH":"2026-04-25T09:50:29.984064","MEAN_MOTION":15.80910902,"ECCENTRICITY":0.0001765,"INCLINATION":53.1583,"RA_OF_ASC_NODE":150.1904,"ARG_OF_PERICENTER":100.4021,"MEAN_ANOMALY":259.72,"EPHEMERIS_TYPE":0,"CLASSIFICATION_TYPE":"U","NORAD_CAT_ID":68547,"ELEMENT_SET_NO":999,"REV_AT_EPOCH":364,"BSTAR":0.00070962,"MEAN_MOTION_DOT":0.00141933,"MEAN_MOTION_DDOT":0},{"OBJECT_NAME":"STARLINK-37145","OBJECT_ID":"2026-070G","EPOCH":"2026-04-24T03:30:51.996096","MEAN_MOTION":15.80997333,"ECCENTRICITY":0.00010245,"INCLINATION":53.1578,"RA_OF_ASC_NODE":156.5312,"ARG_OF_PERICENTER":136.5361,"MEAN_ANOMALY":223.5743,"EPHEMERIS_TYPE":0,"CLASSIFICATION_TYPE":"U","NORAD_CAT_ID":68548,"ELEMENT_SET_NO":999,"REV_AT_EPOCH":344,"BSTAR":0.0012452511,"MEAN_MOTION_DOT":0.00253888,"MEAN_MOTION_DDOT":0},{"OBJECT_NAME":"STARLINK-36204","OBJECT_ID":"2026-070H","EPOCH":"2026-04-25T08:18:23.128992","MEAN_MOTION":15.80927818,"ECCENTRICITY":0.0001093,"INCLINATION":53.158,"RA_OF_ASC_NODE":150.5011,"ARG_OF_PERICENTER":58.41,"MEAN_ANOMALY":301.7029,"EPHEMERIS_TYPE":0,"CLASSIFICATION_TYPE":"U","NORAD_CAT_ID":68549,"ELEMENT_SET_NO":999,"REV_AT_EPOCH":363,"BSTAR":0.0012192,"MEAN_MOTION_DOT":0.0024759,"MEAN_MOTION_DDOT":0},{"OBJECT_NAME":"STARLINK-36304","OBJECT_ID":"2026-070J","EPOCH":"2026-04-25T14:20:21.949728","MEAN_MOTION":15.80969335,"ECCENTRICITY":0.0001109,"INCLINATION":53.1576,"RA_OF_ASC_NODE":149.223,"ARG_OF_PERICENTER":100.052,"MEAN_ANOMALY":260.0628,"EPHEMERIS_TYPE":0,"CLASSIFICATION_TYPE":"U","NORAD_CAT_ID":68550,"ELEMENT_SET_NO":999,"REV_AT_EPOCH":367,"BSTAR":0.0011225,"MEAN_MOTION_DOT":0.00227806,"MEAN_MOTION_DDOT":0},{"OBJECT_NAME":"STARLINK-37288","OBJECT_ID":"2026-070K","EPOCH":"2026-04-24T09:29:36.499776","MEAN_MOTION":15.80954284,"ECCENTRICITY":0.00012541,"INCLINATION":53.1579,"RA_OF_ASC_NODE":155.2377,"ARG_OF_PERICENTER":102.2092,"MEAN_ANOMALY":257.9071,"EPHEMERIS_TYPE":0,"CLASSIFICATION_TYPE":"U","NORAD_CAT_ID":68551,"ELEMENT_SET_NO":999,"REV_AT_EPOCH":348,"BSTAR":0.00099784464,"MEAN_MOTION_DOT":0.00201664,"MEAN_MOTION_DDOT":0},{"OBJECT_NAME":"STARLINK-37295","OBJECT_ID":"2026-070L","EPOCH":"2026-04-25T14:21:26.378208","MEAN_MOTION":15.80979334,"ECCENTRICITY":0.0002051,"INCLINATION":53.1577,"RA_OF_ASC_NODE":149.2282,"ARG_OF_PERICENTER":152.3013,"MEAN_ANOMALY":207.8119,"EPHEMERIS_TYPE":0,"CLASSIFICATION_TYPE":"U","NORAD_CAT_ID":68552,"ELEMENT_SET_NO":999,"REV_AT_EPOCH":367,"BSTAR":0.0011485,"MEAN_MOTION_DOT":0.00233362,"MEAN_MOTION_DDOT":0},{"OBJECT_NAME":"STARLINK-37254","OBJECT_ID":"2026-070M","EPOCH":"2026-04-24T13:59:28.155264","MEAN_MOTION":15.80996946,"ECCENTRICITY":0.00016247,"INCLINATION":53.158,"RA_OF_ASC_NODE":154.2719,"ARG_OF_PERICENTER":15.6289,"MEAN_ANOMALY":344.4784,"EPHEMERIS_TYPE":0,"CLASSIFICATION_TYPE":"U","NORAD_CAT_ID":68553,"ELEMENT_SET_NO":999,"REV_AT_EPOCH":351,"BSTAR":-0.00011036841,"MEAN_MOTION_DOT":-0.00022553,"MEAN_MOTION_DDOT":0}]
